CZ-2C R/B               
1 54039U 22132E   26046.50923545  .00044225  00000+0  54461-3 0  9991
2 54039  97.2957  49.1894 0019287 164.2508 195.9353 15.59876902186912
GSLV R/B                
1 54149U 22138AN  26046.38966933  .00003909  00000+0  33962-3 0  9990
2 54149  87.3870 173.8236 0019876 228.5051 131.4475 14.96602634180591
XRISM                   
1 57800U 23137A   26046.44996377  .00007449  00000+0  42648-3 0  9993
2 57800  31.0028  67.4751 0008191 177.9279 182.1394 15.11224789134429
ACS3                    
1 59588U 24077B   26046.45651063  .00022554  00000+0  18530-1 0  9998
2 59588  97.2188 352.5665 0047233 143.2086 217.2335 13.88668537 91117
SZ-21 MODULE            
1 66515U 25246C   26046.20281023  .00040350  00000+0  37236-3 0  9993
2 66515  41.4768 341.5977 0002175 296.5638  63.4980 15.66814588 14541
